{
  "norad_id": 59020,
  "name": "TJS-11",
  "history": [
    {
      "epoch": "2026-03-28T17:04:34.077792",
      "apogee_km": 35810.59518130569,
      "perigee_km": 35762.805554632825,
      "latitude_deg": -4.0444604689011205,
      "longitude_deg": 150.3045308799483,
      "semi_major_axis_km": 42164.83736796926,
      "eccentricity": 0.0005667,
      "inclination_deg": 4.3071,
      "raan_deg": 326.0927,
      "arg_perigee_deg": 58.4793,
      "mean_anomaly_deg": 178.0209,
      "mean_motion_rev_day": 1.00271409
    }
  ]
}